NORAD_CAT_ID,OBJECT_NAME,OBJECT_TYPE,EPOCH,MEAN_MOTION,ECCENTRICITY,INCLINATION,RA_OF_ASC_NODE,ARG_OF_PERICENTER,MEAN_ANOMALY,BSTAR,MEAN_MOTION_DOT,MEAN_MOTION_DDOT,TLE_LINE0,TLE_LINE1,TLE_LINE2,SEMIMAJOR_AXIS,PERIOD,APOGEE,PERIGEE,DECAYED
51969.0,STARLINK-3680,PAYLOAD,2022-06-26 14:00:01,15.08792461,0.0001875,53.2169,338.9507,53.2805,90.0351,0.00078496,0.00012211,0.0,0 STARLINK-3680,1 51969U 22025P   22177.58335648  .00012211  00000-0  78496-3 0  9996,2 51969  53.2169 338.9507 0001875  53.2805  90.0351 15.08792461  1302,6918.026,95.441,541.188,538.594,0.0
51969.0,STARLINK-3680,PAYLOAD,2022-06-26 22:00:00,15.08810842,0.0001908,53.2151,337.4495,47.9179,106.9179,0.0031633,0.00050376,0.0,0 STARLINK-3680,1 51969U 22025P   22177.91667824  .00050376  00000-0  31633-2 0  9992,2 51969  53.2151 337.4495 0001908  47.9179 106.9179 15.08810842 18244,6917.97,95.439,541.154,538.515,0.0
51969.0,STARLINK-3680,PAYLOAD,2022-06-27 14:00:01,15.08839887,0.0001728,53.2169,334.4555,52.1373,125.8627,-0.002562,-0.00040832,0.0,0 STARLINK-3680,1 51969U 22025P   22178.58334491 -.00040832  00000-0 -25620-2 0  9994,2 51969  53.2169 334.4555 0001728  52.1373 125.8627 15.08839887 18340,6917.880999999999,95.438,540.941,538.55,0.0
51969.0,STARLINK-3680,PAYLOAD,2022-06-27 22:00:00,15.08800795,0.0001646,53.2164,332.9602,42.5101,147.02,0.002241,0.00035519,0.0,0 STARLINK-3680,1 51969U 22025P   22178.91667824  .00035519  00000-0  22410-2 0  9998,2 51969  53.2164 332.9602 0001646  42.5101 147.0200 15.08800795  1309,6918.0,95.44,541.004,538.727,0.0
51969.0,STARLINK-3680,PAYLOAD,2022-06-28 14:00:01,15.08842367,0.0001576999999999,53.2168,329.9666,47.7806,164.8935,-0.0011931,-0.00019227,0.0,0 STARLINK-3680,1 51969U 22025P   22179.58334491 -.00019227  00000-0 -11931-2 0  9999,2 51969  53.2168 329.9666 0001577  47.7806 164.8935 15.08842367 18492,6917.873000000001,95.437,540.8290000000002,538.6469999999998,0.0
51969.0,STARLINK-3680,PAYLOAD,2022-06-28 22:00:00,15.08823888,0.000167,53.2166,328.471,41.124,183.1405,0.0046158,0.00073911,0.0,0 STARLINK-3680,1 51969U 22025P   22179.91667824  .00073911  00000-0  46158-2 0  9992,2 51969  53.2166 328.4710 0001670  41.1240 183.1405 15.08823888  1303,6917.93,95.439,540.95,538.639,0.0
51969.0,STARLINK-3680,PAYLOAD,2022-06-29 06:00:00,15.08847497,0.0001523,53.2169,326.9727,46.4989,189.3815,7.0387e-05,8.33e-06,0.0,0 STARLINK-3680,1 51969U 22025P   22180.25001157  .00000833  00000-0  70387-4 0  9998,2 51969  53.2169 326.9727 0001523  46.4989 189.3815 15.08847497 18596,6917.857,95.437,540.776,538.669,0.0
51969.0,STARLINK-3680,PAYLOAD,2022-06-29 14:00:01,15.08855733,0.0001683,53.2171,325.4774,47.8597,199.6201,-0.0013510999999999,-0.00021736,0.0,0 STARLINK-3680,1 51969U 22025P   22180.58334491 -.00021736  00000-0 -13511-2 0  9995,2 51969  53.2171 325.4774 0001683  47.8597 199.6201 15.08855733  1308,6917.831999999999,95.437,540.862,538.533,0.0
51969.0,STARLINK-3680,PAYLOAD,2022-06-29 22:00:00,15.0884145,0.0001776999999999,53.217,323.9817,42.9448,216.1377,0.0011998,0.00018859,0.0,0 STARLINK-3680,1 51969U 22025P   22180.91667824  .00018859  00000-0  11998-2 0  9998,2 51969  53.2170 323.9817 0001777  42.9448 216.1377 15.08841450  1303,6917.876,95.437,540.97,538.512,0.0
51969.0,STARLINK-3680,PAYLOAD,2022-06-30 14:00:01,15.08875289,0.0001679,53.2176,320.9884,45.5112,236.7914,-0.0044331,-0.00070222,0.0,0 STARLINK-3680,1 51969U 22025P   22181.58334491 -.00070222  00000-0 -44331-2 0  9994,2 51969  53.2176 320.9884 0001679  45.5112 236.7914 15.08875289  1300,6917.773,95.435,540.799,538.476,0.0
51969.0,STARLINK-3680,PAYLOAD,2022-06-30 16:00:00,15.08852808,0.0001745,53.2176,320.6147,43.8144,331.398,-0.002608,-0.0004157,0.0,0 STARLINK-3680,1 51969U 22025P   22181.66667824 -.00041570  00000-0 -26080-2 0  9997,2 51969  53.2176 320.6147 0001745  43.8144 331.3980 15.08852808 18809,6917.840999999999,95.437,540.913,538.499,0.0
51969.0,STARLINK-3680,PAYLOAD,2022-06-30 22:00:00,15.08831905,0.0001718,53.2174,319.4926,39.749,254.1579,0.00053767,8.277e-05,0.0,0 STARLINK-3680,1 51969U 22025P   22181.91667824  .00008277  00000-0  53767-3 0  9993,2 51969  53.2174 319.4926 0001718  39.7490 254.1579 15.08831905  1304,6917.905,95.438,540.9590000000002,538.582,0.0
51969.0,STARLINK-3680,PAYLOAD,2022-07-01 06:00:00,15.08813233,0.0001541999999999,53.2178,317.9946,46.157,259.3478,0.003138,0.00049971,0.0,0 STARLINK-3680,1 51969U 22025P   22182.25001157  .00049971  00000-0  31380-2 0  9994,2 51969  53.2178 317.9946 0001542  46.1570 259.3478 15.08813233 18890,6917.962,95.439,540.894,538.76,0.0
51969.0,STARLINK-3680,PAYLOAD,2022-07-01 14:00:01,15.08852202,0.0001672,53.218,316.4996,44.1594,272.9259,-0.0013259,-0.00021335,0.0,0 STARLINK-3680,1 51969U 22025P   22182.58334491 -.00021335  00000-0 -13259-2 0  9991,2 51969  53.2180 316.4996 0001672  44.1594 272.9259 15.08852202  1305,6917.843000000003,95.437,540.865,538.5509999999998,0.0
51969.0,STARLINK-3680,PAYLOAD,2022-07-01 22:00:00,15.08860502,0.0001739,53.2176,315.0036,40.9296,287.7515,-0.0021958,-0.00035084,0.0,0 STARLINK-3680,1 51969U 22025P   22182.91667824 -.00035084  00000-0 -21958-2 0  9998,2 51969  53.2176 315.0036 0001739  40.9296 287.7515 15.08860502  1308,6917.818,95.436,540.886,538.48,0.0
51969.0,STARLINK-3680,PAYLOAD,2022-07-02 14:00:01,15.08838898,0.0001747,53.2179,312.011,46.8345,305.0318,-0.0013332,-0.00021443,0.0,0 STARLINK-3680,1 51969U 22025P   22183.58334491 -.00021443  00000-0 -13332-2 0  9994,2 51969  53.2179 312.0110 0001747  46.8345 305.0318 15.08838898  1308,6917.884,95.438,540.957,538.54,0.0
51969.0,STARLINK-3680,PAYLOAD,2022-07-02 22:00:00,15.08849553,0.0001776999999999,53.2174,310.5148,43.2405,320.2186,-0.0002501,-4.267e-05,0.0,0 STARLINK-3680,1 51969U 22025P   22183.91667824 -.00004267  00000-0 -25010-3 0  9992,2 51969  53.2174 310.5148 0001777  43.2405 320.2186 15.08849553  1300,6917.851,95.437,540.945,538.487,0.0
51969.0,STARLINK-3680,PAYLOAD,2022-07-03 00:00:00,15.08862039,0.0001724,53.2175,310.1402,45.6341,50.7266,-0.0014065,-0.00022616,0.0,0 STARLINK-3680,1 51969U 22025P   22184.00001157 -.00022616  00000-0 -14065-2 0  9999,2 51969  53.2175 310.1402 0001724  45.6341  50.7266 15.08862039 19168,6917.813,95.436,540.871,538.485,0.0
51969.0,STARLINK-3680,PAYLOAD,2022-07-03 14:00:01,15.08875733,0.0001712,53.2173,307.5224,46.5059,340.1663,-0.0029709,-0.00047306,0.0,0 STARLINK-3680,1 51969U 22025P   22184.58334491 -.00047306  00000-0 -29709-2 0  9996,2 51969  53.2173 307.5224 0001712  46.5059 340.1663 15.08875733  1300,6917.771,95.435,540.82,538.452,0.0
51969.0,STARLINK-3680,PAYLOAD,2022-07-03 22:00:00,15.08862373,0.0001725,53.2168,306.0259,43.6674,354.6177,-0.0053126999999999,-0.00083908,0.0,0 STARLINK-3680,1 51969U 22025P   22184.91667824 -.00083908  00000-0 -53127-2 0  9991,2 51969  53.2168 306.0259 0001725  43.6674 354.6177 15.08862373  1307,6917.812,95.436,540.87,538.484,0.0
51969.0,STARLINK-3680,PAYLOAD,2022-07-04 14:00:01,15.08811114,0.0001763,53.2166,303.0337,48.9192,12.4981,-0.0011691,-0.00018832,0.0,0 STARLINK-3680,1 51969U 22025P   22185.58334491 -.00018832  00000-0 -11691-2 0  9990,2 51969  53.2166 303.0337 0001763  48.9192  12.4981 15.08811114  1303,6917.969,95.439,541.053,538.614,0.0
51969.0,STARLINK-3680,PAYLOAD,2022-07-04 22:00:00,15.088224599999998,0.0001748,53.2161,301.5371,45.7034,27.27,-0.000461,-7.614e-05,0.0,0 STARLINK-3680,1 51969U 22025P   22185.91667824 -.00007614  00000-0 -46100-3 0  9996,2 51969  53.2161 301.5371 0001748  45.7034  27.2700 15.08822460  1301,6917.934,95.439,541.008,538.59,0.0
51969.0,STARLINK-3680,PAYLOAD,2022-07-05 08:00:01,15.08845176,0.0001588,53.2164,299.6656,52.4966,124.931,0.0014142,0.00022294,0.0,0 STARLINK-3680,1 51969U 22025P   22186.33334491  .00022294  00000-0  14142-2 0  9993,2 51969  53.2164 299.6656 0001588  52.4966 124.9310 15.08845176 19511,6917.865,95.437,540.828,538.631,0.0
51969.0,STARLINK-3680,PAYLOAD,2022-07-05 14:00:01,15.08861576,0.0001734,53.216,298.5447,46.416,49.7173,-0.0013449999999999,-0.00021643,0.0,0 STARLINK-3680,1 51969U 22025P   22186.58334491 -.00021643  00000-0 -13450-2 0  9990,2 51969  53.2160 298.5447 0001734  46.4160  49.7173 15.08861576  1306,6917.814,95.436,540.879,538.48,0.0
51969.0,STARLINK-3680,PAYLOAD,2022-07-05 22:00:00,15.08861201,0.0001764,53.2158,297.0478,45.57899999999999,62.1602,-0.0033546,-0.00053313,0.0,0 STARLINK-3680,1 51969U 22025P   22186.91667824 -.00053313  00000-0 -33546-2 0  9993,2 51969  53.2158 297.0478 0001764  45.5790  62.1602 15.08861201 19606,6917.816,95.436,540.901,538.46,0.0
51969.0,STARLINK-3680,PAYLOAD,2022-07-06 14:00:01,15.08839826,0.0001866,53.2159,294.0554,48.4156,82.5118,-0.00057289,-9.394e-05,0.0,0 STARLINK-3680,1 51969U 22025P   22187.58334491 -.00009394  00000-0 -57289-3 0  9999,2 51969  53.2159 294.0554 0001866  48.4156  82.5118 15.08839826  1304,6917.880999999999,95.438,541.0369999999998,538.455,0.0
51969.0,STARLINK-3680,PAYLOAD,2022-07-06 16:00:00,15.08823378,0.0001907,53.2161,293.6816,46.8723,176.9575,0.0018101,0.00028624,0.0,0 STARLINK-3680,1 51969U 22025P   22187.66667824  .00028624  00000-0  18101-2 0  9991,2 51969  53.2161 293.6816 0001907  46.8723 176.9575 15.08823378 19715,6917.931,95.439,541.115,538.477,0.0
51969.0,STARLINK-3680,PAYLOAD,2022-07-06 22:00:00,15.08857256,0.0001843,53.2159,292.5584,46.604,95.91,-0.0016333,-0.00026201,0.0,0 STARLINK-3680,1 51969U 22025P   22187.91667824 -.00026201  00000-0 -16333-2 0  9995,2 51969  53.2159 292.5584 0001843  46.6040  95.9100 15.08857256  1303,6917.828,95.436,540.9680000000002,538.418,0.0
51969.0,STARLINK-3680,PAYLOAD,2022-07-07 13:16:07,15.08854183,0.0001806,53.2178,289.7018,49.3144,310.8005,8.818899999999999e-05,1.116e-05,0.0,0 STARLINK-3680,1 51969U 22025P   22188.55286567  .00001116  00000-0  88189-4 0  9993,2 51969  53.2178 289.7018 0001806  49.3144 310.8005 15.08854183 18732,6917.837,95.437,540.951,538.453,0.0
